P/2010 H5 (Scotti),e,14.0693,24.8103,175.3234,7.156974,0.0514766,0.15392087,194.7795,08/21.0/2020,2000,g 13.0,2.0
# From MPC 98558
P/2010 J3 (McMillan),e,13.2907,106.4054,157.5770,8.968772,0.0366948,0.72742812,133.7094,08/21.0/2020,2000,g 11.0,4.0
# From MPC 84315
P/2010 JC81 (WISE),e,38.7021,30.8396,12.4498,8.112024,0.0426590,0.77653009,145.5617,08/21.0/2020,2000,g  9.0,4.0
# From MPC 74248
P/2010 T2 (PANSTARRS),e,7.9283,59.1409,353.8674,5.505934,0.0762882,0.32161526,259.7078,08/21.0/2020,2000,g 11.5,4.0
# From MPC 98558
P/2010 TO20 (LINEAR-Grauer),e,2.4793,43.2995,266.7609,5.828186,0.0700493,0.05433274,302.5102,08/21.0/2020,2000,g  9.0,4.0
# From MPC 82316
P/2010 U1 (Boattini),e,8.2140,280.7198,85.8767,6.513120,0.0592953,0.24779232,229.1512,08/21.0/2020,2000,g  9.5,4.0
# From MPC119994
C/2010 U3 (Boattini),e,55.5180,43.0396,88.0751,2530,0.0000077,0.99666251,0.0000,02/26.0476/2019,2000,g  1.0,4.0
# From MPC 79021
P/2010 UH55 (Spacewatch),e,8.0491,233.0203,225.1849,6.649991,0.0574741,0.56361968,196.2440,08/21.0/2020,2000,g 11.0,4.0
# From MPC 75009
P/2010 WK (LINEAR),e,11.4002,11.3132,40.9997,5.759551,0.0713052,0.68968695,257.9054,08/21.0/2020,2000,g 14.5,2.0
# From MPC 82317
P/2011 A2 (Scotti),e,4.4752,54.6750,94.5398,3.105008,0.1801399,0.49938530,275.7462,08/21.0/2020,2000,g 16.5,4.0
# From MPC 84021
P/2011 C2 (Gibbs),e,10.8854,12.1228,161.0583,7.414247,0.0488206,0.26907367,153.8731,08/21.0/2020,2000,g  9.0,4.0
# From MPC 79866
P/2011 FR143 (Lemmon),e,15.9904,190.9497,350.1497,6.855740,0.0549064,0.45119140,189.8300,08/21.0/2020,2000,g 14.0,2.0
# From MPC 82317
P/2011 JB15 (Spacewatch-Boattini),e,19.1462,153.6011,110.9672,7.352840,0.0494335,0.31826027,154.8122,08/21.0/2020,2000,g  9.0,4.0
# From MPEC 2020-AA5
C/2011 KP36 (Spacewatch),e,18.9835,173.3074,180.6335,38.82191,0.0040746,0.87432276,6.3015,08/21.0/2020,2000,g  4.5,4.0
# From MPC 87913
P/2011 N1 (ASH),e,35.7090,77.6060,330.3427,6.250706,0.0630682,0.54350869,190.2310,08/21.0/2020,2000,g 11.5,4.0
# From MPC 75714
P/2011 NO1 (Elenin),e,15.2491,295.7889,263.8389,5.522680,0.0759415,0.77498993,265.6146,08/21.0/2020,2000,g 15.0,4.0
# From MPC 82318
P/2011 P1 (McNaught),e,5.6570,4.2416,348.8786,7.469883,0.0482762,0.32676440,178.0109,08/21.0/2020,2000,g  9.0,4.0
# From MPC 77806
P/2011 Q3 (McNaught),e,6.0564,32.0244,310.9691,4.970518,0.0889409,0.53247830,295.2029,08/21.0/2020,2000,g 13.5,4.0
# From MPC 90269
P/2011 R3 (Novichonok-Gerke),e,19.2568,189.6593,225.1568,4.778849,0.0943451,0.27175424,287.4420,08/21.0/2020,2000,g 11.0,4.0
# From MPC 98558
P/2011 S1 (Gibbs),e,2.6836,218.9107,192.5382,8.589245,0.0391536,0.20004330,86.1913,08/21.0/2020,2000,g  8.0,4.0
# From MPC115880
P/2011 U2 (Bressi),e,9.9113,263.2999,154.8630,4.894528,0.0910202,0.13458176,261.4271,08/21.0/2020,2000,g 10.0,4.0
# From MPC 79022
P/2011 UA134 (Spacewatch-PANSTARRS),e,10.4444,40.4315,32.4663,5.602978,0.0743149,0.62929857,237.9009,08/21.0/2020,2000,g 17.5,4.0
# From MPC 77406
P/2011 V1 (Boattini),e,7.3775,46.8543,269.2328,3.854423,0.1302462,0.55063233,89.7258,08/21.0/2020,2000,g 15.5,4.0
# From MPC 82718
P/2011 W1 (PANSTARRS),e,3.7186,161.7901,282.7272,4.660062,0.0979753,0.28698299,307.5122,08/21.0/2020,2000,g 11.5,4.0
# From MPC 79342
P/2011 Y2 (Boattini),e,6.3713,309.3691,131.9405,6.239679,0.0632355,0.70920402,195.3471,08/21.0/2020,2000,g 15.0,4.0
# From MPC 94669
P/2012 B1 (PANSTARRS),e,7.6164,36.1975,162.5950,6.527079,0.0591052,0.40995295,152.9677,08/21.0/2020,2000,g  9.0,4.0
# From MPC 78590
P/2012 C3 (PANSTARRS),e,9.0920,135.3677,344.9542,9.748681,0.0323806,0.63011148,359.9758,10/06.0/2011,2000,g 13.0,4.0
# From MPC 84931
P/2012 F2 (PANSTARRS),e,14.7277,227.0632,33.2431,6.328020,0.0619159,0.54288165,166.3436,08/21.0/2020,2000,g 12.0,4.0
# From MPC 79344
P/2012 G1 (PANSTARRS),e,11.6925,282.5440,286.1149,4.172871,0.1156250,0.38072240,359.9500,06/01.0/2012,2000,g 15.0,4.0
# From MPC 80898
P/2012 K3 (Gibbs),e,13.1946,125.8086,172.1361,3.624449,0.1428371,0.42349399,52.7803,08/21.0/2020,2000,g 15.0,4.0
# From MPC 88326
P/2012 NJ (La Sagra),e,84.6533,315.5509,338.3216,8.458146,0.0400674,0.84742240,119.8463,08/21.0/2020,2000,g 14.5,4.0
# From MPC 81470
P/2012 O1 (McNaught),e,7.4331,91.9842,238.2117,3.539908,0.1479845,0.59453026,79.5552,08/21.0/2020,2000,g 17.5,4.0
# From MPC 80899
P/2012 O2 (McNaught),e,24.4865,120.6784,183.3938,3.622609,0.1429460,0.53282767,67.5972,08/21.0/2020,2000,g 17.0,4.0
# From MPC 82720
P/2012 O3 (McNaught),e,16.6137,336.4083,344.6998,4.575396,0.1007073,0.64690805,294.8654,08/21.0/2020,2000,g 16.5,4.0
# From MPC 82720
P/2012 S2 (La Sagra),e,8.6874,51.1928,312.5066,4.410529,0.1064065,0.69115382,313.5198,08/21.0/2020,2000,g 17.0,4.0
# From MPC 82720
P/2012 SB6 (Lemmon),e,10.9285,8.2093,14.4027,3.825832,0.1317090,0.40487321,8.2312,08/21.0/2020,2000,g 14.0,4.0
# From MPC 82320
P/2012 T2 (PANSTARRS),e,12.5556,73.7318,310.4314,5.738232,0.0717029,0.16062995,192.2254,08/21.0/2020,2000,g 10.0,4.0
# From MPC 80900
P/2012 T3 (PANSTARRS),e,9.5688,114.4082,195.4366,6.152599,0.0645827,0.61718667,195.9463,08/21.0/2020,2000,g 15.0,4.0
# From MPC 87914
P/2012 TK8 (Tenagra),e,6.3405,288.9701,127.8705,4.129773,0.1174397,0.27434221,309.4458,08/21.0/2020,2000,g 13.0,4.0
# From MPC 82720
P/2012 U2 (PANSTARRS),e,10.7483,185.2707,228.3315,7.143393,0.0516235,0.49768682,146.7781,08/21.0/2020,2000,g 12.5,4.0
# From MPC 84024
P/2012 US27 (Siding Spring),e,39.3277,49.1702,0.8229,5.166228,0.0839351,0.64735208,232.1100,08/21.0/2020,2000,g 13.5,4.0
# From MPC 82721
P/2012 WA34 (Lemmon-PANSTARRS),e,6.1182,94.4704,353.0322,4.765881,0.0947304,0.34214678,261.0834,08/21.0/2020,2000,g 13.5,4.0
# From MPC 84024
P/2013 A2 (Scotti),e,3.3613,355.8143,134.5455,4.013513,0.1225793,0.45436972,338.0826,08/21.0/2020,2000,g 15.5,4.0
# From MPC 82721
P/2013 AL76 (Catalina),e,144.8054,145.9502,27.1280,6.498020,0.0595021,0.68607316,167.1850,08/21.0/2020,2000,g 16.0,4.0
# From MPC115880
C/2013 C2 (Tenagra),e,21.3393,247.5306,309.5467,16.00827,0.0153882,0.42787989,27.7510,08/21.0/2020,2000,g  4.0,4.0
# From MPC 88695
P/2013 EW90 (Tenagra),e,31.7876,160.2965,346.3526,4.116398,0.1180125,0.19493056,338.8992,08/21.0/2020,2000,g 12.0,4.0
# From MPC 91612
P/2013 G1 (Kowalski),e,5.4687,221.4129,51.3630,6.886507,0.0545388,0.51329526,133.2044,08/21.0/2020,2000,g 11.0,4.0
# From MPC 84025
P/2013 G4 (PANSTARRS),e,5.9161,339.6458,214.7204,4.439062,0.1053822,0.40967565,289.6570,08/21.0/2020,2000,g 15.0,4.0
# From MPC 91613
P/2013 J2 (McNaught),e,15.5356,289.4288,37.7193,6.223488,0.0634824,0.65743270,161.9562,08/21.0/2020,2000,g 13.0,4.0
# From MPC 87066
P/2013 J4 (PANSTARRS),e,5.0352,84.0011,118.7706,2.475100,0.2531133,0.23099371,359.9443,11/04.0/2013,2000,g 14.0,4.0
# From MPC 86229
P/2013 N3 (PANSTARRS),e,2.1729,17.5028,323.8392,7.390756,0.0490536,0.59298038,116.7224,08/21.0/2020,2000,g 13.0,4.0
# From MPC 85834
P/2013 N5 (PANSTARRS),e,23.4137,187.1702,176.8821,6.799827,0.0555850,0.73166971,144.9346,08/21.0/2020,2000,g 17.0,4.0
# From MPC 87479
P/2013 O2 (PANSTARRS),e,13.3183,207.1525,214.2551,3.789899,0.1335865,0.44682778,323.3145,08/21.0/2020,2000,g 14.0,4.0
# From MPC 85834
P/2013 P1 (PANSTARRS),e,18.7191,160.6281,138.0712,8.567008,0.0393061,0.60615636,107.2777,08/21.0/2020,2000,g 12.0,4.0
# From MPC 94671
P/2013 R3 (Catalina-PANSTARRS),e,0.8653,342.0011,11.1524,3.034001,0.1865007,0.27500717,116.2528,08/21.0/2020,2000,g 14.0,4.0
# From unp
P/2013 R3-A (Catalina-PANSTARRS),e,0.8647,341.9680,11.1914,3.033860,0.1865137,0.27497655,116.2838,08/21.0/2020,2000,g  9.0,4.0
# From MPEC 2015-M77
P/2013 R3-B (Catalina-PANSTARRS),e,0.8660,342.0239,11.1263,3.034078,0.1864936,0.27502224,116.2363,08/21.0/2020,2000,g  9.0,4.0
# From MPC 85835
P/2013 T1 (PANSTARRS),e,24.2691,10.0919,346.0713,5.862048,0.0694433,0.62344787,178.9753,08/21.0/2020,2000,g 16.5,4.0
# From MPC 86643
P/2013 T2 (Schwartz),e,9.4559,0.8201,345.4687,3.488889,0.1512423,0.50113847,39.9929,08/21.0/2020,2000,g 16.0,4.0
# From MPC 88696
P/2013 TL117 (Lemmon),e,9.3648,3.3152,112.2479,3.609751,0.1437104,0.68920017,342.0096,08/21.0/2020,2000,g 17.5,4.0
# From MPC110080
C/2013 US10 (Catalina),h,11/16.7595/2015,148.7732,186.3907,340.5879,1.000625,0.821376,2000,4.4,4.0
# From MPC111767
C/2013 V4 (Catalina),e,67.8865,55.6100,40.3296,3205,0.0000054,0.99838371,0.0000,10/05.4651/2015,2000,g  6.0,4.0
# From MPC 91613
P/2013 W1 (PANSTARRS),e,4.6955,117.8478,1.2965,3.491119,0.1510974,0.59285585,356.9308,08/21.0/2020,2000,g 17.5,4.0
# From MPC111767
C/2013 X1 (PANSTARRS),h,04/19.4754/2016,163.1938,131.5737,165.1518,1.000406,1.322239,2000,10.5,2.0
# From MPC101095
P/2013 YG46 (Spacewatch),e,7.8560,48.8740,242.4819,3.276495,0.1661842,0.45491857,215.7637,08/21.0/2020,2000,g 10.0,4.0
# From MPC 89728
P/2014 A2 (Hill),e,24.5451,106.6283,356.2599,5.925803,0.0683256,0.64562332,170.8245,08/21.0/2020,2000,g 15.0,4.0
# From MPC 92981
P/2014 A3 (PANSTARRS),e,13.6804,230.2458,212.6835,4.633212,0.0988282,0.24640053,264.2491,08/21.0/2020,2000,g 12.0,4.0
# From MPC108592
C/2014 A4 (SONEAR),e,121.3815,29.6620,356.5752,2613,0.0000074,0.99840258,0.0000,09/03.8725/2015,2000,g  6.0,4.0
# From MPC119994
C/2014 B1 (Schwartz),e,28.4036,161.4097,345.8007,14704,0.0000006,0.99935017,0.0000,09/09.3627/2017,2000,g  4.0,4.0
# From MPC102095
P/2014 C1 (TOTAS),e,2.6841,167.7719,24.0957,3.041916,0.1857733,0.44733159,92.0816,08/21.0/2020,2000,g 15.5,4.0
# From MPC 91614
P/2014 E1 (Larson),e,15.9762,39.0330,186.0183,3.712114,0.1378073,0.42353895,314.0824,08/21.0/2020,2000,g 14.0,4.0
# From MPC 94280
C/2014 F3 (Sheppard-Trujillo),e,6.5627,326.8156,2.7748,16.03751,0.0153461,0.64488614,355.9594,08/21.0/2020,2000,g  6.0,4.0
# From MPC 98560
P/2014 L2 (NEOWISE),e,5.1968,149.3506,182.6359,6.303689,0.0622747,0.64802372,138.6001,08/21.0/2020,2000,g 12.0,4.0
# From MPC 90769
P/2014 L3 (Hill),e,6.2779,115.4692,178.6250,8.165749,0.0422386,0.77394203,94.7262,08/21.0/2020,2000,g 16.0,4.0
# From MPC103844
C/2014 M1 (PANSTARRS),e,160.2207,234.7943,337.1845,33092,0.0000002,0.99983080,0.0000,08/28.0182/2015,2000,g  9.0,4.0
# From MPC 91614
